{"fetched_at":"2026-07-09T18:17:15.950Z","source":"https://celestrak.org/NORAD/elements/gp.php?NAME=O3B&FORMAT=JSON","constellation":"o3b-mpower","records":[{"OBJECT_NAME":"O3B MPOWER F1","OBJECT_ID":"2022-174A","EPOCH":"2026-07-08T22:09:19.890432","CLASSIFICATION_TYPE":"U","MEAN_MOTION":5.00114736,"ECCENTRICITY":0.00065796,"INCLINATION":0.0498,"RA_OF_ASC_NODE":339.719,"ARG_OF_PERICENTER":139.0359,"MEAN_ANOMALY":226.2079,"EPHEMERIS_TYPE":0,"NORAD_CAT_ID":54755,"ELEMENT_SET_NO":999,"REV_AT_EPOCH":6644,"BSTAR":0,"MEAN_MOTION_DOT":-1e-7,"MEAN_MOTION_DDOT":0},{"OBJECT_NAME":"O3B MPOWER F2","OBJECT_ID":"2022-174B","EPOCH":"2026-07-08T16:45:37.849536","CLASSIFICATION_TYPE":"U","MEAN_MOTION":5.00114947,"ECCENTRICITY":0.00058117,"INCLINATION":0.0457,"RA_OF_ASC_NODE":339.8716,"ARG_OF_PERICENTER":122.4205,"MEAN_ANOMALY":257.7736,"EPHEMERIS_TYPE":0,"NORAD_CAT_ID":54756,"ELEMENT_SET_NO":999,"REV_AT_EPOCH":6652,"BSTAR":0,"MEAN_MOTION_DOT":-1e-7,"MEAN_MOTION_DDOT":0},{"OBJECT_NAME":"O3B MPOWER F4","OBJECT_ID":"2023-059A","EPOCH":"2026-07-08T18:18:07.839072","CLASSIFICATION_TYPE":"U","MEAN_MOTION":5.00115433,"ECCENTRICITY":0.00077194,"INCLINATION":0.063,"RA_OF_ASC_NODE":350.9394,"ARG_OF_PERICENTER":120.4156,"MEAN_ANOMALY":248.728,"EPHEMERIS_TYPE":0,"NORAD_CAT_ID":56367,"ELEMENT_SET_NO":999,"REV_AT_EPOCH":5968,"BSTAR":0,"MEAN_MOTION_DOT":-1e-7,"MEAN_MOTION_DDOT":0},{"OBJECT_NAME":"O3B MPOWER F3","OBJECT_ID":"2023-059B","EPOCH":"2026-07-08T09:30:10.502496","CLASSIFICATION_TYPE":"U","MEAN_MOTION":5.00116465,"ECCENTRICITY":0.00066824,"INCLINATION":0.0637,"RA_OF_ASC_NODE":350.3841,"ARG_OF_PERICENTER":113.7717,"MEAN_ANOMALY":255.9192,"EPHEMERIS_TYPE":0,"NORAD_CAT_ID":56368,"ELEMENT_SET_NO":999,"REV_AT_EPOCH":5579,"BSTAR":0,"MEAN_MOTION_DOT":-1e-7,"MEAN_MOTION_DDOT":0},{"OBJECT_NAME":"O3B MPOWER F5","OBJECT_ID":"2023-175A","EPOCH":"2026-07-08T11:55:36.050592","CLASSIFICATION_TYPE":"U","MEAN_MOTION":5.00115912,"ECCENTRICITY":0.00054213,"INCLINATION":0.0514,"RA_OF_ASC_NODE":9.736,"ARG_OF_PERICENTER":115.4834,"MEAN_ANOMALY":234.832,"EPHEMERIS_TYPE":0,"NORAD_CAT_ID":58346,"ELEMENT_SET_NO":999,"REV_AT_EPOCH":5050,"BSTAR":0,"MEAN_MOTION_DOT":-1e-7,"MEAN_MOTION_DDOT":0},{"OBJECT_NAME":"O3B MPOWER F6","OBJECT_ID":"2023-175B","EPOCH":"2026-07-08T09:32:26.556576","CLASSIFICATION_TYPE":"U","MEAN_MOTION":5.00115789,"ECCENTRICITY":0.00044358,"INCLINATION":0.0535,"RA_OF_ASC_NODE":1.4475,"ARG_OF_PERICENTER":103.2504,"MEAN_ANOMALY":255.3518,"EPHEMERIS_TYPE":0,"NORAD_CAT_ID":58347,"ELEMENT_SET_NO":999,"REV_AT_EPOCH":4941,"BSTAR":0,"MEAN_MOTION_DOT":-1e-7,"MEAN_MOTION_DDOT":0},{"OBJECT_NAME":"O3B MPOWER F7","OBJECT_ID":"2024-244A","EPOCH":"2026-07-08T15:55:53.644512","CLASSIFICATION_TYPE":"U","MEAN_MOTION":5.00115289,"ECCENTRICITY":0.00059601,"INCLINATION":0.0664,"RA_OF_ASC_NODE":343.9423,"ARG_OF_PERICENTER":118.8454,"MEAN_ANOMALY":257.2796,"EPHEMERIS_TYPE":0,"NORAD_CAT_ID":62362,"ELEMENT_SET_NO":999,"REV_AT_EPOCH":2760,"BSTAR":0,"MEAN_MOTION_DOT":-1e-7,"MEAN_MOTION_DDOT":0},{"OBJECT_NAME":"O3B MPOWER F8","OBJECT_ID":"2024-244B","EPOCH":"2026-07-08T19:56:08.369088","CLASSIFICATION_TYPE":"U","MEAN_MOTION":5.00115028,"ECCENTRICITY":0.00058066,"INCLINATION":0.0142,"RA_OF_ASC_NODE":356.1488,"ARG_OF_PERICENTER":100.1144,"MEAN_ANOMALY":263.8035,"EPHEMERIS_TYPE":0,"NORAD_CAT_ID":62363,"ELEMENT_SET_NO":999,"REV_AT_EPOCH":2195,"BSTAR":0,"MEAN_MOTION_DOT":-1e-7,"MEAN_MOTION_DDOT":0},{"OBJECT_NAME":"O3B MPOWER F9","OBJECT_ID":"2025-153A","EPOCH":"2026-07-08T18:20:13.321248","CLASSIFICATION_TYPE":"U","MEAN_MOTION":5.00115643,"ECCENTRICITY":0.00066518,"INCLINATION":0.0607,"RA_OF_ASC_NODE":6.4584,"ARG_OF_PERICENTER":119.8463,"MEAN_ANOMALY":233.7574,"EPHEMERIS_TYPE":0,"NORAD_CAT_ID":64866,"ELEMENT_SET_NO":999,"REV_AT_EPOCH":2064,"BSTAR":0,"MEAN_MOTION_DOT":-1e-7,"MEAN_MOTION_DDOT":0},{"OBJECT_NAME":"O3B MPOWER F10","OBJECT_ID":"2025-153B","EPOCH":"2026-07-08T17:31:19.253280","CLASSIFICATION_TYPE":"U","MEAN_MOTION":5.0011492,"ECCENTRICITY":0.00022808,"INCLINATION":0.0578,"RA_OF_ASC_NODE":2.9426,"ARG_OF_PERICENTER":245.0965,"MEAN_ANOMALY":111.9372,"EPHEMERIS_TYPE":0,"NORAD_CAT_ID":64867,"ELEMENT_SET_NO":999,"REV_AT_EPOCH":2311,"BSTAR":0,"MEAN_MOTION_DOT":-1e-7,"MEAN_MOTION_DDOT":0}]}
