O3B MPOWER F1           
1 54755U 22174A   26189.92314688 -.00000010  00000+0  00000+0 0  9999
2 54755   0.0498 339.7190 0006579 139.0359 226.2079  5.00114736 66443
O3B MPOWER F2           
1 54756U 22174B   26189.69835474 -.00000010  00000+0  00000+0 0  9995
2 54756   0.0457 339.8716 0005811 122.4205 257.7736  5.00114947 66520
O3B MPOWER F4           
1 56367U 23059A   26189.76259073 -.00000010  00000+0  00000+0 0  9991
2 56367   0.0630 350.9394 0007719 120.4156 248.7280  5.00115433 59685
O3B MPOWER F3           
1 56368U 23059B   26189.39595489 -.00000010  00000+0  00000+0 0  9995
2 56368   0.0637 350.3841 0006682 113.7717 255.9192  5.00116465 55796
O3B MPOWER F5           
1 58346U 23175A   26189.49694503 -.00000010  00000+0  00000+0 0  9990
2 58346   0.0514   9.7360 0005421 115.4834 234.8320  5.00115912 50507
O3B MPOWER F6           
1 58347U 23175B   26189.39752959 -.00000010  00000+0  00000+0 0  9990
2 58347   0.0535   1.4475 0004435 103.2504 255.3518  5.00115789 49417
O3B MPOWER F7           
1 62362U 24244A   26189.66381533 -.00000010  00000+0  00000+0 0  9996
2 62362   0.0664 343.9423 0005960 118.8454 257.2796  5.00115289 27600
O3B MPOWER F8           
1 62363U 24244B   26189.83065242 -.00000010  00000+0  00000+0 0  9992
2 62363   0.0142 356.1488 0005806 100.1144 263.8035  5.00115028 21950
O3B MPOWER F9           
1 64866U 25153A   26189.76404307 -.00000010  00000+0  00000+0 0  9993
2 64866   0.0607   6.4584 0006651 119.8463 233.7574  5.00115643 20640
O3B MPOWER F10          
1 64867U 25153B   26189.73008395 -.00000010  00000+0  00000+0 0  9998
2 64867   0.0578   2.9426 0002280 245.0965 111.9372  5.00114920 23112
